{"type": "FeatureCollection", "features": [ {"type": "Feature", "properties": {"norad_id": 40938, "name": "BEIDOU-3S IGSO-2S (C56)", "group": "gnss", "lat": -9.123199832973505, "lon": -107.00395961008407, "alt_km": 36028.969267093904, "timestamp": "2025-12-25T03:55:56.599384+00:00", "meta": {"OBJECT_NAME": "BEIDOU-3S IGSO-2S (C56)", "OBJECT_ID": "2015-053A", "EPOCH": "2025-12-24T16:58:26.308416", "MEAN_MOTION": 1.00267681, "ECCENTRICITY": 0.0060658, "INCLINATION": 49.4921, "RA_OF_ASC_NODE": 260.8653, "ARG_OF_PERICENTER": 188.5708, "MEAN_ANOMALY": 354.4321, "EPHEMERIS_TYPE": 0, "CLASSIFICATION_TYPE": "U", "NORAD_CAT_ID": 40938, "ELEMENT_SET_NO": 999, "REV_AT_EPOCH": 3760, "BSTAR": 0, "MEAN_MOTION_DOT": -1.14e-06, "MEAN_MOTION_DDOT": 0}, "tle": {"line1": "1 40938U 15053A   25358.70724894 -.00000114  00000+0  00000+0 0  9997", "line2": "2 40938  49.4921 260.8653 0060658 188.5708 354.4321  1.00267681 37606"}}, "geometry": {"type": "Point", "coordinates": [-107.00395961008407, -9.123199832973505]}}, {"type": "Feature", "properties": {"norad_id": 41019, "name": "GPS BIIF-11 (PRN 10)", "group": "gnss", "lat": -55.461828612975324, "lon": -34.172208175110995, "alt_km": 19995.65974539539, "timestamp": "2025-12-25T03:55:56.599396+00:00", "meta": {"OBJECT_NAME": "GPS BIIF-11 (PRN 10)", "OBJECT_ID": "2015-062A", "EPOCH": "2025-12-23T18:41:09.835584", "MEAN_MOTION": 2.00567099, "ECCENTRICITY": 0.01110889, "INCLINATION": 56.8401, "RA_OF_ASC_NODE": 37.5754, "ARG_OF_PERICENTER": 230.2332, "MEAN_ANOMALY": 128.8479, "EPHEMERIS_TYPE": 0, "CLASSIFICATION_TYPE": "U", "NORAD_CAT_ID": 41019, "ELEMENT_SET_NO": 999, "REV_AT_EPOCH": 7431, "BSTAR": 0, "MEAN_MOTION_DOT": -4.7e-07, "MEAN_MOTION_DDOT": 0}, "tle": {"line1": "1 41019U 15062A   25357.77858606 -.00000047  00000+0  00000+0 0  9998", "line2": "2 41019  56.8401  37.5754 0111088 230.2332 128.8479  2.00567099 74318"}}, "geometry": {"type": "Point", "coordinates": [-34.172208175110995, -55.461828612975324]}}, {"type": "Feature", "properties": {"norad_id": 41028, "name": "GSAT-15 (GAGAN/PRN 139)", "group": "gnss", "lat": -0.016276545749771325, "lon": -113.57852142657218, "alt_km": 35776.270979758454, "timestamp": "2025-12-25T03:55:56.599408+00:00", "meta": {"OBJECT_NAME": "GSAT-15 (GAGAN/PRN 139)", "OBJECT_ID": "2015-065A", "EPOCH": "2025-12-24T20:02:52.359072", "MEAN_MOTION": 1.00271322, "ECCENTRICITY": 0.0002371, "INCLINATION": 0.0168, "RA_OF_ASC_NODE": 282.5367, "ARG_OF_PERICENTER": 318.7808, "MEAN_ANOMALY": 246.5174, "EPHEMERIS_TYPE": 0, "CLASSIFICATION_TYPE": "U", "NORAD_CAT_ID": 41028, "ELEMENT_SET_NO": 999, "REV_AT_EPOCH": 3705, "BSTAR": 0, "MEAN_MOTION_DOT": -2.37e-06, "MEAN_MOTION_DDOT": 0}, "tle": {"line1": "1 41028U 15065A   25358.83532823 -.00000237  00000+0  00000+0 0  9990", "line2": "2 41028   0.0168 282.5367 0002371 318.7808 246.5174  1.00271322 37055"}}, "geometry": {"type": "Point", "coordinates": [-113.57852142657218, -0.016276545749771325]}}, {"type": "Feature", "properties": {"norad_id": 41174, "name": "GSAT0209 (GALILEO 12)", "group": "gnss", "lat": -23.577853769354693, "lon": -56.66666458070802, "alt_km": 23230.453317241492, "timestamp": "2025-12-25T03:55:56.599419+00:00", "meta": {"OBJECT_NAME": "GSAT0209 (GALILEO 12)", "OBJECT_ID": "2015-079A", "EPOCH": "2025-12-21T21:22:17.332896", "MEAN_MOTION": 1.70474556, "ECCENTRICITY": 0.00025231, "INCLINATION": 55.7178, "RA_OF_ASC_NODE": 106.13, "ARG_OF_PERICENTER": 342.7574, "MEAN_ANOMALY": 17.2091, "EPHEMERIS_TYPE": 0, "CLASSIFICATION_TYPE": "U", "NORAD_CAT_ID": 41174, "ELEMENT_SET_NO": 999, "REV_AT_EPOCH": 6175, "BSTAR": 0, "MEAN_MOTION_DOT": 5e-08, "MEAN_MOTION_DDOT": 0}, "tle": {"line1": "1 41174U 15079A   25355.89047839  .00000005  00000+0  00000+0 0  9990", "line2": "2 41174  55.7178 106.1300 0002523 342.7574  17.2091  1.70474556 61755"}}, "geometry": {"type": "Point", "coordinates": [-56.66666458070802, -23.577853769354693]}}, {"type": "Feature", "properties": {"norad_id": 41175, "name": "GSAT0208 (GALILEO 11)", "group": "gnss", "lat": 52.54470115368185, "lon": 168.80033523516173, "alt_km": 23215.246068426444, "timestamp": "2025-12-25T03:55:56.599430+00:00", "meta": {"OBJECT_NAME": "GSAT0208 (GALILEO 11)", "OBJECT_ID": "2015-079B", "EPOCH": "2025-12-23T06:48:42.697728", "MEAN_MOTION": 1.7047421, "ECCENTRICITY": 0.0001871, "INCLINATION": 55.7171, "RA_OF_ASC_NODE": 106.0888, "ARG_OF_PERICENTER": 351.9973, "MEAN_ANOMALY": 7.984, "EPHEMERIS_TYPE": 0, "CLASSIFICATION_TYPE": "U", "NORAD_CAT_ID": 41175, "ELEMENT_SET_NO": 999, "REV_AT_EPOCH": 6219, "BSTAR": 0, "MEAN_MOTION_DOT": 1.1e-07, "MEAN_MOTION_DDOT": 0}, "tle": {"line1": "1 41175U 15079B   25357.28382752  .00000011  00000+0  00000+0 0  9999", "line2": "2 41175  55.7171 106.0888 0001871 351.9973   7.9840  1.70474210 62193"}}, "geometry": {"type": "Point", "coordinates": [168.80033523516173, 52.54470115368185]}}, {"type": "Feature", "properties": {"norad_id": 41241, "name": "IRNSS-1E", "group": "gnss", "lat": -11.911219429543074, "lon": -98.64965889900799, "alt_km": 35700.240875705065, "timestamp": "2025-12-25T03:55:56.599441+00:00", "meta": {"OBJECT_NAME": "IRNSS-1E", "OBJECT_ID": "2016-003A", "EPOCH": "2025-12-24T15:55:26.718816", "MEAN_MOTION": 1.0026854, "ECCENTRICITY": 0.0021544, "INCLINATION": 32.8513, "RA_OF_ASC_NODE": 62.279, "ARG_OF_PERICENTER": 188.9872, "MEAN_ANOMALY": 192.7105, "EPHEMERIS_TYPE": 0, "CLASSIFICATION_TYPE": "U", "NORAD_CAT_ID": 41241, "ELEMENT_SET_NO": 999, "REV_AT_EPOCH": 3633, "BSTAR": 0, "MEAN_MOTION_DOT": -2.92e-06, "MEAN_MOTION_DDOT": 0}, "tle": {"line1": "1 41241U 16003A   25358.66350369 -.00000292  00000+0  00000+0 0  9995", "line2": "2 41241  32.8513  62.2790 0021544 188.9872 192.7105  1.00268540 36337"}}, "geometry": {"type": "Point", "coordinates": [-98.64965889900799, -11.911219429543074]}}, {"type": "Feature", "properties": {"norad_id": 41328, "name": "GPS BIIF-12 (PRN 32)", "group": "gnss", "lat": -31.27018165894464, "lon": -58.89558548946122, "alt_km": 19962.49976266472, "timestamp": "2025-12-25T03:55:56.599457+00:00", "meta": {"OBJECT_NAME": "GPS BIIF-12 (PRN 32)", "OBJECT_ID": "2016-007A", "EPOCH": "2025-12-23T20:40:23.632032", "MEAN_MOTION": 2.00560126, "ECCENTRICITY": 0.00927286, "INCLINATION": 55.4122, "RA_OF_ASC_NODE": 96.4156, "ARG_OF_PERICENTER": 243.8623, "MEAN_ANOMALY": 115.1928, "EPHEMERIS_TYPE": 0, "CLASSIFICATION_TYPE": "U", "NORAD_CAT_ID": 41328, "ELEMENT_SET_NO": 999, "REV_AT_EPOCH": 7232, "BSTAR": 0, "MEAN_MOTION_DOT": 1.1e-07, "MEAN_MOTION_DDOT": 0}, "tle": {"line1": "1 41328U 16007A   25357.86138463  .00000011  00000+0  00000+0 0  9993", "line2": "2 41328  55.4122  96.4156 0092728 243.8623 115.1928  2.00560126 72329"}}, "geometry": {"type": "Point", "coordinates": [-58.89558548946122, -31.27018165894464]}}, {"type": "Feature", "properties": {"norad_id": 41330, "name": "COSMOS 2514 (751)", "group": "gnss", "lat": -17.813639023910365, "lon": -49.60272861742737, "alt_km": 19147.50532838532, "timestamp": "2025-12-25T03:55:56.599469+00:00", "meta": {"OBJECT_NAME": "COSMOS 2514 (751)", "OBJECT_ID": "2016-008A", "EPOCH": "2025-12-23T18:45:46.770912", "MEAN_MOTION": 2.13102642, "ECCENTRICITY": 0.00116336, "INCLINATION": 65.1274, "RA_OF_ASC_NODE": 319.026, "ARG_OF_PERICENTER": 220.0869, "MEAN_ANOMALY": 139.8272, "EPHEMERIS_TYPE": 0, "CLASSIFICATION_TYPE": "U", "NORAD_CAT_ID": 41330, "ELEMENT_SET_NO": 999, "REV_AT_EPOCH": 7688, "BSTAR": 0, "MEAN_MOTION_DOT": -3.5e-07, "MEAN_MOTION_DDOT": 0}, "tle": {"line1": "1 41330U 16008A   25357.78179133 -.00000035  00000+0  00000+0 0  9994", "line2": "2 41330  65.1274 319.0260 0011633 220.0869 139.8272  2.13102642 76882"}}, "geometry": {"type": "Point", "coordinates": [-49.60272861742737, -17.813639023910365]}}, {"type": "Feature", "properties": {"norad_id": 41384, "name": "IRNSS-1F", "group": "gnss", "lat": 4.893460421377991, "lon": -174.83263119371153, "alt_km": 35796.52687616902, "timestamp": "2025-12-25T03:55:56.599481+00:00", "meta": {"OBJECT_NAME": "IRNSS-1F", "OBJECT_ID": "2016-015A", "EPOCH": "2025-12-23T23:33:29.527200", "MEAN_MOTION": 1.00278072, "ECCENTRICITY": 0.00226621, "INCLINATION": 4.9093, "RA_OF_ASC_NODE": 101.0199, "ARG_OF_PERICENTER": 182.1246, "MEAN_ANOMALY": 195.4962, "EPHEMERIS_TYPE": 0, "CLASSIFICATION_TYPE": "U", "NORAD_CAT_ID": 41384, "ELEMENT_SET_NO": 999, "REV_AT_EPOCH": 3591, "BSTAR": 0, "MEAN_MOTION_DOT": 1.77e-06, "MEAN_MOTION_DDOT": 0}, "tle": {"line1": "1 41384U 16015A   25357.98159175  .00000177  00000+0  00000+0 0  9993", "line2": "2 41384   4.9093 101.0199 0022662 182.1246 195.4962  1.00278072 35911"}}, "geometry": {"type": "Point", "coordinates": [-174.83263119371153, 4.893460421377991]}}, {"type": "Feature", "properties": {"norad_id": 41434, "name": "BEIDOU-2 IGSO-6 (C13)", "group": "gnss", "lat": -22.68763691018146, "lon": -126.21361540853253, "alt_km": 35549.3460908828, "timestamp": "2025-12-25T03:55:56.599493+00:00", "meta": {"OBJECT_NAME": "BEIDOU-2 IGSO-6 (C13)", "OBJECT_ID": "2016-021A", "EPOCH": "2025-12-24T14:08:03.685920", "MEAN_MOTION": 1.00290884, "ECCENTRICITY": 0.0060832, "INCLINATION": 59.9811, "RA_OF_ASC_NODE": 39.7798, "ARG_OF_PERICENTER": 230.476, "MEAN_ANOMALY": 128.7548, "EPHEMERIS_TYPE": 0, "CLASSIFICATION_TYPE": "U", "NORAD_CAT_ID": 41434, "ELEMENT_SET_NO": 999, "REV_AT_EPOCH": 3572, "BSTAR": 0, "MEAN_MOTION_DOT": -1.33e-06, "MEAN_MOTION_DDOT": 0}, "tle": {"line1": "1 41434U 16021A   25358.58893155 -.00000133  00000+0  00000+0 0  9999", "line2": "2 41434  59.9811  39.7798 0060832 230.4760 128.7548  1.00290884 35729"}}, "geometry": {"type": "Point", "coordinates": [-126.21361540853253, -22.68763691018146]}}]}